     2.100          NAVIGATION                              RINEX VERSION / TYPE
fic2rin                                 02/22/2016 00:08:01 PGM / RUN BY / DATE
                                                            END OF HEADER
31 16  2 21  6  0  0.0  .281716696918D-03 -.170530256582D-11  .000000000000D+00
     .500000000000D+02 -.759375000000D+01  .401338145916D-08  .942019673918D+00
    -.288709998131D-06  .831514794845D-02  .111199915409D-04  .515369947624D+04
     .216000000000D+05  .203028321266D-06  .264007827706D+01  .186264514923D-07
     .972426132149D+00  .169562500000D+03 -.425302089482D+00 -.772639326386D-08
    -.327870799992D-09  .100000000000D+01  .188500000000D+04  .000000000000D+00
     .240000000000D+01  .000000000000D+00 -.135041773319D-07  .500000000000D+02
     .144060000000D+05  .400000000000D+01
32 16  2 21  6  0  0.0  .591622665524D-05  .602540239925D-11  .000000000000D+00
     .120000000000D+03 -.940625000000D+01  .485805950054D-08  .301289390141D+01
    -.478699803352D-06  .171819119714D-03  .418163836002D-05  .517914642906D+04
     .216000000000D+05  .465661287308D-07  .155396002687D+01  .204890966415D-07
     .959749673426D+00  .295281250000D+03 -.585795174663D-01 -.810498046211D-08
    -.119290683221D-09  .100000000000D+01  .188500000000D+04  .000000000000D+00
     .340000000000D+01  .630000000000D+02  .279396772385D-08  .120000000000D+03
     .144060000000D+05  .400000000000D+01
12 16  2 21  5 59 44.0  .369288492948D-03  .170530256582D-11  .000000000000D+00
     .500000000000D+01  .118406250000D+03  .393480675764D-08  .584647410100D+00
     .601261854172D-05  .586465536617D-02  .788271427155D-05  .515378342438D+04
     .215840000000D+05  .745058059692D-08 -.257861502768D+01  .391155481339D-07
     .990466695999D+00  .245375000000D+03  .672237491310D+00 -.792675875275D-08
     .384301721995D-09  .100000000000D+01  .188500000000D+04  .000000000000D+00
     .240000000000D+01  .000000000000D+00 -.121071934700D-07  .500000000000D+01
     .154560000000D+05  .400000000000D+01
23 16  2 21  5 59 44.0 -.161082949489D-03 -.181898940355D-11  .000000000000D+00
     .100000000000D+01 -.155312500000D+02  .521843165434D-08  .256144338743D+01
    -.916421413422D-06  .105096303159D-01  .449270009995D-05  .515371557617D+04
     .215840000000D+05 -.130385160446D-06  .155932133490D+01 -.141561031342D-06
     .946089615881D+00  .286250000000D+03 -.261070511151D+01 -.833891877801D-08
    -.133219834855D-09  .100000000000D+01  .188500000000D+04  .000000000000D+00
     .240000000000D+01  .000000000000D+00 -.200234353542D-07  .100000000000D+01
     .210060000000D+05  .400000000000D+01
12 16  2 21  7 59 44.0  .369300600141D-03  .170530256582D-11  .000000000000D+00
     .600000000000D+01  .123187500000D+03  .384373153542D-08  .163473593368D+01
     .629946589470D-05  .586518878117D-02  .786595046520D-05  .515378408241D+04
     .287840000000D+05 -.819563865662D-07 -.257867237553D+01  .707805156708D-07
     .990469702296D+00  .240593750000D+03  .672257669339D+00 -.789497171440D-08
     .448947271884D-09  .100000000000D+01  .188500000000D+04  .000000000000D+00
     .240000000000D+01  .000000000000D+00 -.121071934700D-07  .600000000000D+01
     .216060000000D+05  .400000000000D+01
23 16  2 21  7 59 44.0 -.161095988005D-03 -.181898940355D-11  .000000000000D+00
     .700000000000D+01 -.137187500000D+02  .521093134192D-08 -.267159143574D+01
    -.840052962303D-06  .105092113372D-01  .431947410107D-05  .515371636581D+04
     .287840000000D+05 -.204890966415D-07  .155926126016D+01 -.180676579475D-06
     .946088719113D+00  .288968750000D+03 -.261069558206D+01 -.834391898629D-08
    -.101432796512D-09  .100000000000D+01  .188500000000D+04  .000000000000D+00
     .240000000000D+01  .000000000000D+00 -.200234353542D-07  .700000000000D+01
     .216060000000D+05  .400000000000D+01
 1 16  2 21  8  0  0.0  .123213976622D-04  .102318153949D-11  .000000000000D+00
     .600000000000D+02 -.952187500000D+02  .427660670926D-08  .275723080493D+01
    -.496953725815D-05  .508248631377D-02  .100061297417D-04  .515366015244D+04
     .288000000000D+05 -.875443220139D-07 -.528188181729D+00 -.540167093277D-07
     .964123742892D+00  .188156250000D+03  .462748731251D+00 -.783282626865D-08
    -.209651589973D-09  .100000000000D+01  .188500000000D+04  .000000000000D+00
     .240000000000D+01  .000000000000D+00  .512227416039D-08  .600000000000D+02
     .216060000000D+05  .400000000000D+01
 2 16  2 21  8  0  0.0  .599519349635D-03 -.113686837722D-12  .000000000000D+00
     .880000000000D+02 -.121562500000D+03  .468376652625D-08 -.305931686076D+01
    -.621005892754D-05  .154631631449D-01  .103265047073D-04  .515373792839D+04
     .288000000000D+05  .119209289551D-06 -.571602926539D+00 -.279396772385D-06
     .942825411160D+00  .164718750000D+03 -.216190833970D+01 -.795568852922D-08
    -.280011663610D-09  .100000000000D+01  .188500000000D+04  .000000000000D+00
     .240000000000D+01  .000000000000D+00 -.204890966415D-07  .880000000000D+02
     .216060000000D+05  .400000000000D+01
 3 16  2 21  8  0  0.0 -.272425822914D-04 -.466116034659D-11  .000000000000D+00
     .620000000000D+02  .370625000000D+02  .451697386438D-08 -.974051820345D+00
     .187009572983D-05  .267790397629D-03  .954791903496D-05  .515376392555D+04
     .288000000000D+05 -.242143869400D-07  .512491455486D+00  .745058059692D-08
     .959531468954D+00  .193062500000D+03  .312118670627D+01 -.798318967475D-08
     .456090426568D-09  .100000000000D+01  .188500000000D+04  .000000000000D+00
     .340000000000D+01  .000000000000D+00  .186264514923D-08  .620000000000D+02
     .216060000000D+05  .400000000000D+01
 5 16  2 21  8  0  0.0 -.144160352647D-03  .341060513165D-11  .000000000000D+00
     .960000000000D+02  .367500000000D+02  .484055877156D-08 -.598161603009D+00
     .185891985893D-05  .458203605376D-02  .981986522675D-05  .515373595619D+04
     .288000000000D+05  .968575477600D-07  .501870259151D+00  .856816768646D-07
     .946646665828D+00  .182312500000D+03  .479761627335D+00 -.819712715753D-08
     .465019369923D-09  .100000000000D+01  .188500000000D+04  .000000000000D+00
     .240000000000D+01  .000000000000D+00 -.107102096081D-07  .960000000000D+02
     .216060000000D+05  .400000000000D+01
 6 16  2 21  8  0  0.0  .148873310536D-03  .602540239925D-11  .000000000000D+00
     .550000000000D+02 -.107375000000D+03  .431982279510D-08 -.268284211987D+01
    -.537000596523D-05  .319541897625D-03  .105518847704D-04  .515364964104D+04
     .288000000000D+05  .558793544769D-07 -.536633401529D+00  .111758708954D-07
     .963962742906D+00  .176750000000D+03 -.192881085846D+01 -.795747431789D-08
    -.251081887140D-09  .100000000000D+01  .188500000000D+04  .000000000000D+00
     .240000000000D+01  .000000000000D+00  .419095158577D-08  .550000000000D+02
     .216060000000D+05  .400000000000D+01
 7 16  2 21  8  0  0.0  .468677841127D-03 -.170530256582D-11  .000000000000D+00
     .610000000000D+02 -.581250000000D+01  .412552898770D-08  .204677737444D+01
    -.255182385445D-06  .908512761816D-02  .113733112812D-04  .515367527580D+04
     .288000000000D+05 -.189989805222D-06  .263110663058D+01  .428408384323D-07
     .967572935068D+00  .164718750000D+03 -.268268925956D+01 -.776318051049D-08
    -.413231498465D-09  .100000000000D+01  .188500000000D+04  .000000000000D+00
     .340000000000D+01  .000000000000D+00 -.111758708954D-07  .610000000000D+02
     .216060000000D+05  .400000000000D+01
 8 16  2 21  8  0  0.0 -.246921554208D-04 -.147792889038D-11  .000000000000D+00
     .530000000000D+02 -.217500000000D+02  .494020577940D-08 -.264962996910D+00
    -.129453837872D-05  .182041747030D-02  .174902379513D-05  .515364759827D+04
     .288000000000D+05  .204890966415D-07 -.158814868132D+01 -.279396772385D-07
     .961869602644D+00  .346593750000D+03 -.135067733542D+01 -.857392856711D-08
    -.339299847486D-10  .100000000000D+01  .188500000000D+04  .000000000000D+00
     .340000000000D+01  .000000000000D+00  .465661287308D-08  .530000000000D+02
     .216060000000D+05  .400000000000D+01
 9 16  2 21  8  0  0.0  .750483013690D-04  .761701812735D-11  .000000000000D+00
     .450000000000D+02 -.120000000000D+02  .507949729574D-08 -.144414847604D+01
    -.659376382828D-06  .650060712360D-03  .432692468166D-05  .515362556839D+04
     .288000000000D+05 -.111758708954D-07  .155312934395D+01  .931322574615D-08
     .955129462142D+00  .292750000000D+03  .193083678349D+01 -.839106380720D-08
    -.163578242262D-09  .100000000000D+01  .188500000000D+04  .000000000000D+00
     .240000000000D+01  .000000000000D+00  .139698386192D-08  .450000000000D+02
     .216060000000D+05  .400000000000D+01
10 16  2 21  8  0  0.0  .405153259635D-04 -.545696821064D-11  .000000000000D+00
     .590000000000D+02  .287500000000D+02  .456340436982D-08  .604014458827D+00
     .152178108692D-05  .116372609045D-02  .941939651966D-05  .515368626976D+04
     .288000000000D+05  .372529029846D-08  .508404567079D+00 -.558793544769D-07
     .959794336315D+00  .193843750000D+03 -.288566062888D+01 -.802104839458D-08
     .411088552060D-09  .100000000000D+01  .188500000000D+04  .000000000000D+00
     .240000000000D+01  .000000000000D+00  .232830643654D-08  .590000000000D+02
     .216060000000D+05  .400000000000D+01
11 16  2 21  8  0  0.0 -.633317977190D-03 -.170530256582D-11  .000000000000D+00
     .480000000000D+02 -.118093750000D+03  .597060584256D-08  .216643654075D+01
    -.632740557194D-05  .162210930139D-01  .537373125553D-05  .515365846062D+04
     .288000000000D+05  .188127160072D-06 -.898301920738D+00 -.195577740669D-06
     .895736142366D+00  .238281250000D+03  .150159896454D+01 -.863250243552D-08
    -.361443627006D-09  .100000000000D+01  .188500000000D+04  .000000000000D+00
     .240000000000D+01  .000000000000D+00 -.121071934700D-07  .480000000000D+02
     .216060000000D+05  .400000000000D+01
